HXMT (HUIYAN)           
1 42758U 17034A   26083.06028120  .00005644  00000+0  28325-3 0  9990
2 42758  43.0145 296.7682 0032531 323.5333  36.3300 15.17646455484725
SAOCOM 1A               
1 43641U 18076A   26083.27528977  .00000604  00000+0  82456-4 0  9994
2 43641  97.8899 271.2417 0001460  87.9786 272.1594 14.82155600403526
H-2A R/B                
1 43682U 18084L   26083.14192937  .00018225  00000+0  42599-3 0  9998
2 43682  98.8707 303.6244 0024142 335.2715  24.7369 15.41952120408008
SAOCOM 1B               
1 46265U 20059A   26083.30651367  .00000037  00000+0  11243-4 0  9993
2 46265  97.8900 270.3705 0001519  85.9378 274.2008 14.82150304300912
CSS (TIANHE)            
1 48274U 21035A   26083.23811462  .00020484  00000+0  23638-3 0  9994
2 48274  41.4662 119.5892 0004823   8.9107 351.1817 15.61417953279889
COSMOS 2550             
1 48865U 21056A   26079.66782363 -.00000188  00000+0  12540-6 0  9995
2 48865  67.1449   7.6743 0008200 268.9234  91.0981 15.33831865265144
CZ-2C R/B               
1 52794U 22058K   26083.16603807  .00030792  00000+0  43415-3 0  9994
2 52794  50.1878 243.7627 0041635 262.6993  96.9245 15.55264976212386
CZ-2C R/B               
1 54039U 22132E   26082.97340210  .00046290  00000+0  50219-3 0  9995
2 54039  97.2964  86.7380 0018708  45.7338 314.5452 15.63169879192603
GSLV R/B                
1 54149U 22138AN  26083.22800563  .00003461  00000+0  29773-3 0  9998
2 54149  87.3867 161.4960 0024109  98.4757 261.9208 14.96868932186107
XRISM                   
1 57800U 23137A   26082.96989851  .00006019  00000+0  33946-3 0  9992
2 57800  31.0011 191.2852 0007949 183.2958 176.7629 15.11658756139951
ACS3                    
1 59588U 24077B   26083.11134622  .00018196  00000+0  14398-1 0  9994
2 59588  97.1997  20.9824 0070496  43.0107 317.6538 13.90240183 96206
SZ-21 MODULE            
1 66515U 25246C   26082.18487837  .00043706  00000+0  35991-3 0  9995
2 66515  41.4734 120.2206 0000654 218.7155 141.3640 15.69572241 20198
